     3.04           N: GNSS NAV DATA    M: MIXED            RINEX VERSION / TYPE
ssrcrin-15.6.1x                         20250101 211500 UTC PGM / RUN BY / DATE 
    18                                                      LEAP SECONDS        
                                                            END OF HEADER       
E08 2025 01 01 21 10 00-3.935787244700E-04-6.153300091682E-12 0.000000000000E+00
     5.100000000000E+01-1.697812500000E+02 2.545106013881E-09 8.903500685970E-02
    -7.832422852516E-06 1.742166932672E-04 1.095980405807E-05 5.440619028091E+03
     3.354000000000E+05-7.636845111847E-08 3.139049080851E-01 1.862645149231E-08
     9.694355238294E-01 1.106875000000E+02 6.382863884244E-01-5.155214735386E-09
     2.292952653539E-10 2.580000000000E+02 2.347000000000E+03
     3.120000000000E+00 0.000000000000E+00-5.820766091347E-09 0.000000000000E+00
     3.361400000000E+05
E33 2025 01 01 21 10 00 1.643615541980E-05 1.421085471520E-14 0.000000000000E+00
     5.100000000000E+01 1.716250000000E+02 2.732970982068E-09 2.181015878466E+00
     8.117407560349E-06 3.463346511126E-04 8.009374141693E-07 5.440609580994E+03
     3.354000000000E+05 5.774199962616E-08-1.776074066922E+00 1.117587089539E-08
     9.997057990164E-01 3.385000000000E+02-1.708598847440E+00-5.652378301387E-09
     1.992940156814E-10 2.580000000000E+02 2.347000000000E+03
     3.120000000000E+00 0.000000000000E+00-6.286427378654E-09 0.000000000000E+00
     3.361400000000E+05
E21 2025 01 01 21 10 00-6.376430392265E-04-2.259525899717E-12 0.000000000000E+00
     5.100000000000E+01-2.371875000000E+01 3.554790928454E-09 2.282513080677E+00
    -1.182779669762E-06 2.546492032707E-04 6.249174475670E-06 5.440605405807E+03
     3.354000000000E+05-5.401670932770E-08 2.413447047334E+00-7.450580596924E-08
     9.642198097968E-01 2.112812500000E+02 1.033298424067E+00-5.639520622956E-09
    -4.810914679621E-10 2.580000000000E+02 2.347000000000E+03
     3.120000000000E+00 0.000000000000E+00 0.000000000000E+00 0.000000000000E+00
     3.361400000000E+05
E03 2025 01 01 21 10 00-1.638190587983E-04-2.501110429876E-12 0.000000000000E+00
     5.100000000000E+01-1.795000000000E+02 2.634752605165E-09 5.676763286034E-01
    -8.348375558853E-06 2.420765813440E-04 1.135095953941E-05 5.440619892120E+03
     3.354000000000E+05 2.421438694000E-08 3.130553549835E-01-7.264316082001E-08
     9.635970967726E-01 9.900000000000E+01 9.345429468478E-01-5.243789853467E-09
     1.892935991239E-10 2.580000000000E+02 2.347000000000E+03
     3.120000000000E+00 0.000000000000E+00 6.984919309616E-10 0.000000000000E+00
     3.361400000000E+05
S44 2025 01 01 21 22 08 8.414499461651E-07 0.000000000000E+00 3.361520000000E+05
     7.315943520000E+03-1.158125000000E-03 8.750000000000E-08 6.300000000000E+01
     4.149373800000E+04 1.041875000000E-03 1.625000000000E-07 3.276700000000E+04
     1.852807200000E+03-3.858000000000E-02-4.875000000000E-06 6.000000000000E+01
S36 2025 01 01 21 23 44 0.000000000000E+00 0.000000000000E+00 3.362250000000E+05
     4.200368800000E+04 0.000000000000E+00 0.000000000000E+00 6.300000000000E+01
     3.674846960000E+03 0.000000000000E+00 0.000000000000E+00 3.276700000000E+04
     0.000000000000E+00 0.000000000000E+00 0.000000000000E+00 1.450000000000E+02
S23 2025 01 01 21 24 16 0.000000000000E+00 0.000000000000E+00 3.362570000000E+05
     3.866796400000E+04 0.000000000000E+00 0.000000000000E+00 6.300000000000E+01
     1.681330800000E+04 0.000000000000E+00 0.000000000000E+00 3.276700000000E+04
     0.000000000000E+00 0.000000000000E+00 0.000000000000E+00 8.700000000000E+01
S44 2025 01 01 21 24 16 8.414499461651E-07 0.000000000000E+00 3.362720000000E+05
     7.315796800000E+03-1.134375000000E-03 8.750000000000E-08 6.300000000000E+01
     4.149387408000E+04 1.083750000000E-03 1.500000000000E-07 3.276700000000E+04
     1.847788000000E+03-3.984000000000E-02-4.875000000000E-06 6.000000000000E+01
S21 2025 01 01 21 24 48 0.000000000000E+00 0.000000000000E+00 3.362950000000E+05
     4.200468400000E+04 0.000000000000E+00 0.000000000000E+00 6.300000000000E+01
    -3.674932960000E+03 0.000000000000E+00 0.000000000000E+00 3.276700000000E+04
     0.000000000000E+00 0.000000000000E+00 0.000000000000E+00 6.300000000000E+01
S27 2025 01 01 21 25 20 5.443580448627E-07 6.366462912410E-11 3.362970000000E+05
     2.418419696000E+04 3.245625000000E-03-2.500000000000E-07 6.300000000000E+01
     3.457886936000E+04-3.830000000000E-03-2.500000000000E-08 3.276700000000E+04
     2.907188000000E+02 3.516400000000E-02-1.562500000000E-06 4.300000000000E+01
S28 2025 01 01 21 25 20 0.000000000000E+00 0.000000000000E+00 3.362970000000E+05
     5.141947280000E+03 1.193125000000E-03-1.500000000000E-07 6.300000000000E+01
     4.186069608000E+04-1.212500000000E-03 0.000000000000E+00 3.276700000000E+04
    -6.950400000000E+00-1.540000000000E-03 6.250000000000E-08 4.300000000000E+01
S36 2025 01 01 21 26 08 0.000000000000E+00 0.000000000000E+00 3.363810000000E+05
     4.200368800000E+04 0.000000000000E+00 0.000000000000E+00 6.300000000000E+01
     3.674846960000E+03 0.000000000000E+00 0.000000000000E+00 3.276700000000E+04
     0.000000000000E+00 0.000000000000E+00 0.000000000000E+00 1.460000000000E+02
S23 2025 01 01 21 26 24 0.000000000000E+00 0.000000000000E+00 3.363840000000E+05
     3.866796400000E+04 0.000000000000E+00 0.000000000000E+00 6.300000000000E+01
     1.681330800000E+04 0.000000000000E+00 0.000000000000E+00 3.276700000000E+04
     0.000000000000E+00 0.000000000000E+00 0.000000000000E+00 8.800000000000E+01
S44 2025 01 01 21 26 24 8.414499461651E-07 0.000000000000E+00 3.363920000000E+05
     7.315653120000E+03-1.110000000000E-03 8.750000000000E-08 6.300000000000E+01
     4.149401544000E+04 1.124375000000E-03 1.500000000000E-07 3.276700000000E+04
     1.842608400000E+03-4.109200000000E-02-4.875000000000E-06 6.000000000000E+01
E23 2025 01 01 21 10 00 8.341798093170E-06-2.557953848736E-13 0.000000000000E+00
     5.100000000000E+01-2.615625000000E+01 3.504431687932E-09 9.215926722854E-01
    -1.139938831329E-06 3.616873873398E-04 6.124377250671E-06 5.440609458923E+03
     3.354000000000E+05-3.725290298462E-08 2.409426392543E+00 3.911554813385E-08
     9.661017953890E-01 2.125625000000E+02 1.616026216470E+00-5.548088243002E-09
    -4.878774649119E-10 5.170000000000E+02 2.347000000000E+03
     3.120000000000E+00 3.900000000000E+02-6.984919309616E-10 1.164153218269E-09
     3.363950000000E+05
E23 2025 01 01 21 10 00 8.339702617377E-06-2.415845301584E-13 0.000000000000E+00
     5.100000000000E+01-2.615625000000E+01 3.504431687932E-09 9.215926722854E-01
    -1.139938831329E-06 3.616873873398E-04 6.124377250671E-06 5.440609458923E+03
     3.354000000000E+05-3.725290298462E-08 2.409426392543E+00 3.911554813385E-08
     9.661017953890E-01 2.125625000000E+02 1.616026216470E+00-5.548088243002E-09
    -4.878774649119E-10 2.580000000000E+02 2.347000000000E+03
     3.120000000000E+00 4.800000000000E+01-6.984919309616E-10 0.000000000000E+00
     3.364400000000E+05
E26 2025 01 01 21 10 00-1.662206486799E-04 1.092814727599E-11 0.000000000000E+00
     5.100000000000E+01 1.714062500000E+02 2.725470669650E-09 2.706204646572E+00
     8.072704076767E-06 3.912327811122E-04 1.678243279457E-06 5.440610450745E+03
     3.354000000000E+05 1.862645149231E-08-1.776995143552E+00 8.381903171539E-08
     9.930098079186E-01 3.188437500000E+02-1.484823895047E+00-5.677022185047E-09
     2.242950570751E-10 5.170000000000E+02 2.347000000000E+03
     3.120000000000E+00 0.000000000000E+00-6.752088665962E-09-6.752088665962E-09
     3.364550000000E+05
S21 2025 01 01 21 27 28 0.000000000000E+00 0.000000000000E+00 3.364570000000E+05
     4.200468400000E+04 0.000000000000E+00 0.000000000000E+00 6.300000000000E+01
    -3.674932960000E+03 0.000000000000E+00 0.000000000000E+00 3.276700000000E+04
     0.000000000000E+00 0.000000000000E+00 0.000000000000E+00 6.400000000000E+01
R12 2025 01 01 21 15 00 4.909653216600E-05 9.094947017729E-13 3.364500000000E+05
    -1.533701025391E+04 2.433345794678E+00 9.313225746155E-10 0.000000000000E+00
    -2.381720214844E+03-1.323600769043E+00 0.000000000000E+00-1.000000000000E+00
     2.025412744141E+04 1.689501762390E+00-2.793967723846E-09 0.000000000000E+00
E26 2025 01 01 21 10 00-1.662208815105E-04 1.092814727599E-11 0.000000000000E+00
     5.100000000000E+01 1.714062500000E+02 2.725470669650E-09 2.706204646572E+00
     8.072704076767E-06 3.912327811122E-04 1.678243279457E-06 5.440610450745E+03
     3.354000000000E+05 1.862645149231E-08-1.776995143552E+00 8.381903171539E-08
     9.930098079186E-01 3.188437500000E+02-1.484823895047E+00-5.677022185047E-09
     2.242950570751E-10 2.580000000000E+02 2.347000000000E+03
     3.120000000000E+00 0.000000000000E+00-6.752088665962E-09 0.000000000000E+00
     3.364900000000E+05
S23 2025 01 01 21 28 16 0.000000000000E+00 0.000000000000E+00 3.365070000000E+05
     3.866796400000E+04 0.000000000000E+00 0.000000000000E+00 6.300000000000E+01
     1.681330800000E+04 0.000000000000E+00 0.000000000000E+00 3.276700000000E+04
     0.000000000000E+00 0.000000000000E+00 0.000000000000E+00 8.900000000000E+01
S44 2025 01 01 21 28 32 8.414499461651E-07 0.000000000000E+00 3.365120000000E+05
     7.315512640000E+03-1.084375000000E-03 8.750000000000E-08 6.300000000000E+01
     4.149416200000E+04 1.165000000000E-03 1.500000000000E-07 3.276700000000E+04
     1.837268000000E+03-4.234400000000E-02-4.875000000000E-06 6.000000000000E+01
S36 2025 01 01 21 28 48 0.000000000000E+00 0.000000000000E+00 3.365330000000E+05
     4.200368800000E+04 0.000000000000E+00 0.000000000000E+00 6.300000000000E+01
     3.674846960000E+03 0.000000000000E+00 0.000000000000E+00 3.276700000000E+04
     0.000000000000E+00 0.000000000000E+00 0.000000000000E+00 1.470000000000E+02
